{"fetched_at":"2026-03-30T13:17:50Z","count":15418,"tles":[{"name":"STARLINK-36142","line1":"1 66981U 25288Y   26087.83286256  .00023766  00000+0  86956-3 0  9998","line2":"2 66981  43.0042 275.4703 0001096 273.5100  86.5626 15.27610918 18212","category":"Starlink"}]}