{
  "norad_id": 66981,
  "name": "STARLINK-36142",
  "history": [
    {
      "epoch": "2026-03-28T19:59:19.325184",
      "apogee_km": 483.7085624469373,
      "perigee_km": 482.2044735259251,
      "latitude_deg": 23.27657823177201,
      "longitude_deg": -121.94519423972815,
      "semi_major_axis_km": 6861.093517986431,
      "eccentricity": 0.00010961,
      "inclination_deg": 43.0042,
      "raan_deg": 275.4703,
      "arg_perigee_deg": 273.51,
      "mean_anomaly_deg": 86.5626,
      "mean_motion_rev_day": 15.27610918
    }
  ]
}